STARLINK-35623          
1 66138U 25237AA  25322.91286305  .00053297  00000+0  95832-3 0  9996
2 66138  53.1613 199.5896 0001535  80.7246 279.3937 15.49353087  5575
STARLINK-35549          
1 66139U 25237AB  25322.91215687  .00087279  00000+0  15570-2 0  9999
2 66139  53.1603 199.5841 0001071 110.2347 249.8778 15.49361069  5575
STARLINK-35625          
1 66140U 25237AC  25322.91250246  .00067673  00000+0  12110-2 0  9994
2 66140  53.1609 199.5863 0001573  83.3790 276.7398 15.49385951  5579
STARLINK-35603          
1 66141U 25237AD  25322.91181476  .00054908  00000+0  98759-3 0  9994
2 66141  53.1600 199.5826 0001458  59.3861 300.7292 15.49331570  5573
TJS-20                  
1 66142U 25238A   25322.60373797  .00000036  00000+0  00000+0 0  9992
2 66142   5.9418 300.4272 0001401 103.8430 293.4849  1.00269624   224
CZ-5 R/B                
1 66143U 25238B   25322.71890740  .00067876  11074-5  16814-2 0  9994
2 66143  16.2764 264.6019 7588135 180.4559 178.0637  1.94652907   527
SPAINSAT NG II          
1 66144U 25239A   25321.84156371 -.00000354  00000+0  00000+0 0  9991
2 66144  19.9038 243.4991 7869625 184.0240 159.6654  1.04198281   298
STARLINK-35318          
1 66146U 25240A   25322.91671296 -.00006053  00000+0 -14147-3 0  9996
2 66146  53.1603 218.9750 0001146  63.5074   6.2643 15.39621143  5126
STARLINK-33948          
1 66147U 25240B   25322.94859802  .00038694  00000+0  70016-3 0  9992
2 66147  53.1594 218.5987 0001135  93.5177 266.5962 15.49315751  5063
STARLINK-35081          
1 66148U 25240C   25322.94300918  .00042298  00000+0  71763-3 0  9997
2 66148  53.1595 218.5634 0000822 134.7344 225.3733 15.51099894  5014
STARLINK-35601          
1 66149U 25240D   25322.91671296  .00008740  00000+0  22844-3 0  9995
2 66149  53.1596 218.8131 0001104  92.9871  57.7906 15.39590429  5076
STARLINK-35605          
1 66150U 25240E   25322.94756677  .00074435  00000+0  13326-2 0  9995
2 66150  53.1595 218.5927 0001111 114.3239 245.7886 15.49331125  5019
