CCSDS_OMM_VERS = 2.0
CREATION_DATE  = 
ORIGINATOR     = 

OBJECT_NAME    = STARLINK-35623
OBJECT_ID      = 2025-237AA
CENTER_NAME    = EARTH
REF_FRAME      = TEME
TIME_SYSTEM    = UTC
MEAN_ELEMENT_THEORY = SGP/SGP4

EPOCH          = 2025-11-18T21:54:31.367520
MEAN_MOTION    = 15.49353087
ECCENTRICITY   = .00015352
INCLINATION    = 53.1613
RA_OF_ASC_NODE = 199.5896
ARG_OF_PERICENTER = 80.7246
MEAN_ANOMALY   = 279.3937

EPHEMERIS_TYPE = 0
CLASSIFICATION_TYPE = U
NORAD_CAT_ID   = 66138
ELEMENT_SET_NO = 999
REV_AT_EPOCH   = 557
BSTAR          = .95831629E-3
MEAN_MOTION_DOT = .53297E-3
MEAN_MOTION_DDOT = 0

CCSDS_OMM_VERS = 2.0
CREATION_DATE  = 
ORIGINATOR     = 

OBJECT_NAME    = STARLINK-35549
OBJECT_ID      = 2025-237AB
CENTER_NAME    = EARTH
REF_FRAME      = TEME
TIME_SYSTEM    = UTC
MEAN_ELEMENT_THEORY = SGP/SGP4

EPOCH          = 2025-11-18T21:53:30.353568
MEAN_MOTION    = 15.49361069
ECCENTRICITY   = .00010717
INCLINATION    = 53.1603
RA_OF_ASC_NODE = 199.5841
ARG_OF_PERICENTER = 110.2347
MEAN_ANOMALY   = 249.8778

EPHEMERIS_TYPE = 0
CLASSIFICATION_TYPE = U
NORAD_CAT_ID   = 66139
ELEMENT_SET_NO = 999
REV_AT_EPOCH   = 557
BSTAR          = .15570002E-2
MEAN_MOTION_DOT = .87279E-3
MEAN_MOTION_DDOT = 0

CCSDS_OMM_VERS = 2.0
CREATION_DATE  = 
ORIGINATOR     = 

OBJECT_NAME    = STARLINK-35625
OBJECT_ID      = 2025-237AC
CENTER_NAME    = EARTH
REF_FRAME      = TEME
TIME_SYSTEM    = UTC
MEAN_ELEMENT_THEORY = SGP/SGP4

EPOCH          = 2025-11-18T21:54:00.212544
MEAN_MOTION    = 15.49385951
ECCENTRICITY   = .00015732
INCLINATION    = 53.1609
RA_OF_ASC_NODE = 199.5863
ARG_OF_PERICENTER = 83.3790
MEAN_ANOMALY   = 276.7398

EPHEMERIS_TYPE = 0
CLASSIFICATION_TYPE = U
NORAD_CAT_ID   = 66140
ELEMENT_SET_NO = 999
REV_AT_EPOCH   = 557
BSTAR          = .12110033E-2
MEAN_MOTION_DOT = .67673E-3
MEAN_MOTION_DDOT = 0

CCSDS_OMM_VERS = 2.0
CREATION_DATE  = 
ORIGINATOR     = 

OBJECT_NAME    = STARLINK-35603
OBJECT_ID      = 2025-237AD
CENTER_NAME    = EARTH
REF_FRAME      = TEME
TIME_SYSTEM    = UTC
MEAN_ELEMENT_THEORY = SGP/SGP4

EPOCH          = 2025-11-18T21:53:00.795264
MEAN_MOTION    = 15.49331570
ECCENTRICITY   = .00014581
INCLINATION    = 53.1600
RA_OF_ASC_NODE = 199.5826
ARG_OF_PERICENTER = 59.3861
MEAN_ANOMALY   = 300.7292

EPHEMERIS_TYPE = 0
CLASSIFICATION_TYPE = U
NORAD_CAT_ID   = 66141
ELEMENT_SET_NO = 999
REV_AT_EPOCH   = 557
BSTAR          = .98758704E-3
MEAN_MOTION_DOT = .54908E-3
MEAN_MOTION_DDOT = 0

CCSDS_OMM_VERS = 2.0
CREATION_DATE  = 
ORIGINATOR     = 

OBJECT_NAME    = TJS-20
OBJECT_ID      = 2025-238A
CENTER_NAME    = EARTH
REF_FRAME      = TEME
TIME_SYSTEM    = UTC
MEAN_ELEMENT_THEORY = SGP/SGP4

EPOCH          = 2025-11-18T14:29:22.960608
MEAN_MOTION    = 1.00269624
ECCENTRICITY   = .00014012
INCLINATION    = 5.9418
RA_OF_ASC_NODE = 300.4272
ARG_OF_PERICENTER = 103.8430
MEAN_ANOMALY   = 293.4849

EPHEMERIS_TYPE = 0
CLASSIFICATION_TYPE = U
NORAD_CAT_ID   = 66142
ELEMENT_SET_NO = 999
REV_AT_EPOCH   = 22
BSTAR          = 0
MEAN_MOTION_DOT = .36E-6
MEAN_MOTION_DDOT = 0

CCSDS_OMM_VERS = 2.0
CREATION_DATE  = 
ORIGINATOR     = 

OBJECT_NAME    = CZ-5 R/B
OBJECT_ID      = 2025-238B
CENTER_NAME    = EARTH
REF_FRAME      = TEME
TIME_SYSTEM    = UTC
MEAN_ELEMENT_THEORY = SGP/SGP4

EPOCH          = 2025-11-18T17:15:13.599360
MEAN_MOTION    = 1.94652907
ECCENTRICITY   = .75881353
INCLINATION    = 16.2764
RA_OF_ASC_NODE = 264.6019
ARG_OF_PERICENTER = 180.4559
MEAN_ANOMALY   = 178.0637

EPHEMERIS_TYPE = 0
CLASSIFICATION_TYPE = U
NORAD_CAT_ID   = 66143
ELEMENT_SET_NO = 999
REV_AT_EPOCH   = 52
BSTAR          = .16814399E-2
MEAN_MOTION_DOT = .67876E-3
MEAN_MOTION_DDOT = .1107407E-5

CCSDS_OMM_VERS = 2.0
CREATION_DATE  = 
ORIGINATOR     = 

OBJECT_NAME    = SPAINSAT NG II
OBJECT_ID      = 2025-239A
CENTER_NAME    = EARTH
REF_FRAME      = TEME
TIME_SYSTEM    = UTC
MEAN_ELEMENT_THEORY = SGP/SGP4

EPOCH          = 2025-11-17T20:11:51.104544
MEAN_MOTION    = 1.04198281
ECCENTRICITY   = .78696251
INCLINATION    = 19.9038
RA_OF_ASC_NODE = 243.4991
ARG_OF_PERICENTER = 184.0240
MEAN_ANOMALY   = 159.6654

EPHEMERIS_TYPE = 0
CLASSIFICATION_TYPE = U
NORAD_CAT_ID   = 66144
ELEMENT_SET_NO = 999
REV_AT_EPOCH   = 29
BSTAR          = 0
MEAN_MOTION_DOT = -.354E-5
MEAN_MOTION_DDOT = 0

CCSDS_OMM_VERS = 2.0
CREATION_DATE  = 
ORIGINATOR     = 

OBJECT_NAME    = STARLINK-35318
OBJECT_ID      = 2025-240A
CENTER_NAME    = EARTH
REF_FRAME      = TEME
TIME_SYSTEM    = UTC
MEAN_ELEMENT_THEORY = SGP/SGP4

EPOCH          = 2025-11-18T22:00:03.999744
MEAN_MOTION    = 15.39621143
ECCENTRICITY   = .00011465
INCLINATION    = 53.1603
RA_OF_ASC_NODE = 218.9750
ARG_OF_PERICENTER = 63.5074
MEAN_ANOMALY   = 6.2643

EPHEMERIS_TYPE = 0
CLASSIFICATION_TYPE = U
NORAD_CAT_ID   = 66146
ELEMENT_SET_NO = 999
REV_AT_EPOCH   = 512
BSTAR          = -.14146707E-3
MEAN_MOTION_DOT = -.6053E-4
MEAN_MOTION_DDOT = 0

CCSDS_OMM_VERS = 2.0
CREATION_DATE  = 
ORIGINATOR     = 

OBJECT_NAME    = STARLINK-33948
OBJECT_ID      = 2025-240B
CENTER_NAME    = EARTH
REF_FRAME      = TEME
TIME_SYSTEM    = UTC
MEAN_ELEMENT_THEORY = SGP/SGP4

EPOCH          = 2025-11-18T22:45:58.868928
MEAN_MOTION    = 15.49315751
ECCENTRICITY   = .00011353
INCLINATION    = 53.1594
RA_OF_ASC_NODE = 218.5987
ARG_OF_PERICENTER = 93.5177
MEAN_ANOMALY   = 266.5962

EPHEMERIS_TYPE = 0
CLASSIFICATION_TYPE = U
NORAD_CAT_ID   = 66147
ELEMENT_SET_NO = 999
REV_AT_EPOCH   = 506
BSTAR          = .70015552E-3
MEAN_MOTION_DOT = .38694E-3
MEAN_MOTION_DDOT = 0

CCSDS_OMM_VERS = 2.0
CREATION_DATE  = 
ORIGINATOR     = 

OBJECT_NAME    = STARLINK-35081
OBJECT_ID      = 2025-240C
CENTER_NAME    = EARTH
REF_FRAME      = TEME
TIME_SYSTEM    = UTC
MEAN_ELEMENT_THEORY = SGP/SGP4

EPOCH          = 2025-11-18T22:37:55.993152
MEAN_MOTION    = 15.51099894
ECCENTRICITY   = .00008229
INCLINATION    = 53.1595
RA_OF_ASC_NODE = 218.5634
ARG_OF_PERICENTER = 134.7344
MEAN_ANOMALY   = 225.3733

EPHEMERIS_TYPE = 0
CLASSIFICATION_TYPE = U
NORAD_CAT_ID   = 66148
ELEMENT_SET_NO = 999
REV_AT_EPOCH   = 501
BSTAR          = .71762815E-3
MEAN_MOTION_DOT = .42298E-3
MEAN_MOTION_DDOT = 0

CCSDS_OMM_VERS = 2.0
CREATION_DATE  = 
ORIGINATOR     = 

OBJECT_NAME    = STARLINK-35601
OBJECT_ID      = 2025-240D
CENTER_NAME    = EARTH
REF_FRAME      = TEME
TIME_SYSTEM    = UTC
MEAN_ELEMENT_THEORY = SGP/SGP4

EPOCH          = 2025-11-18T22:00:03.999744
MEAN_MOTION    = 15.39590429
ECCENTRICITY   = .00011047
INCLINATION    = 53.1596
RA_OF_ASC_NODE = 218.8131
ARG_OF_PERICENTER = 92.9871
MEAN_ANOMALY   = 57.7906

EPHEMERIS_TYPE = 0
CLASSIFICATION_TYPE = U
NORAD_CAT_ID   = 66149
ELEMENT_SET_NO = 999
REV_AT_EPOCH   = 507
BSTAR          = .22843756E-3
MEAN_MOTION_DOT = .874E-4
MEAN_MOTION_DDOT = 0

CCSDS_OMM_VERS = 2.0
CREATION_DATE  = 
ORIGINATOR     = 

OBJECT_NAME    = STARLINK-35605
OBJECT_ID      = 2025-240E
CENTER_NAME    = EARTH
REF_FRAME      = TEME
TIME_SYSTEM    = UTC
MEAN_ELEMENT_THEORY = SGP/SGP4

EPOCH          = 2025-11-18T22:44:29.768928
MEAN_MOTION    = 15.49331125
ECCENTRICITY   = .00011111
INCLINATION    = 53.1595
RA_OF_ASC_NODE = 218.5927
ARG_OF_PERICENTER = 114.3239
MEAN_ANOMALY   = 245.7886

EPHEMERIS_TYPE = 0
CLASSIFICATION_TYPE = U
NORAD_CAT_ID   = 66150
ELEMENT_SET_NO = 999
REV_AT_EPOCH   = 501
BSTAR          = .13326346E-2
MEAN_MOTION_DOT = .74435E-3
MEAN_MOTION_DDOT = 0

